APRIZESAT 2             
1 28366U 04025A   26178.23469547  .00000207  00000+0  77679-4 0  9998
2 28366  98.1021 343.6467 0104755 219.1988 140.1581 14.38039863153083
SAUDICOMSAT 1           
1 28369U 04025D   26178.25938825  .00000378  00000+0  97705-4 0  9994
2 28369  98.5770 188.6625 0031991 355.0335   5.0539 14.55481267165590
SAUDICOMSAT 2           
1 28370U 04025E   26178.26907048  .00000232  00000+0  71499-4 0  9991
2 28370  98.6639 190.8005 0054508 228.3681 131.2837 14.49986276161568
APRIZESAT 1             
1 28372U 04025G   26178.01261327  .00000268  00000+0  77776-4 0  9992
2 28372  98.6302 189.0056 0045553 124.5250 236.0258 14.51782213163338
NANOSAT-1               
1 28493U 04049B   26178.30919891  .00001042  00000+0  14448-3 0  9997
2 28493  98.2287 315.2183 0002754 254.7684 105.3222 14.80178486156948
SAUDICOMSAT 7           
1 31119U 07012C   26177.87230442  .00000491  00000+0  96912-4 0  9992
2 31119  98.3782 152.2023 0055985 164.8226 195.4673 14.66118757 23859
SAUDICOMSAT 6           
1 31121U 07012E   26178.14701609  .00000497  00000+0  10484-3 0  9999
2 31121  98.4102 145.8490 0070532 296.3378  63.0591 14.62568868 21641
SAUDICOMSAT 5           
1 31124U 07012H   26178.17298065  .00000701  00000+0  12880-3 0  9992
2 31124  98.3494 153.2541 0048731  94.0971 266.5805 14.68169016 25061
SAUDICOMSAT 3           
1 31125U 07012J   26177.91209182  .00000874  00000+0  15044-3 0  9992
2 31125  98.3147 153.5354 0039655  23.1983 337.1002 14.70721610 26256
SAUDICOMSAT 4           
1 31127U 07012L   26177.85646331  .00000411  00000+0  85372-4 0  9997
2 31127  98.3987 150.6244 0062369 227.4193 132.1737 14.64520510 22709
APRIZESAT 4             
1 35684U 09041D   26178.16946233  .00000645  00000+0  83570-4 0  9999
2 35684  98.1410 253.6888 0041947 289.8347  69.8347 14.83891448912848
APRIZESAT 3             
1 35686U 09041F   26177.99634245  .00000988  00000+0  89999-4 0  9999
2 35686  98.2075 331.6908 0062492  35.7192 324.8184 14.96270364917842
S-NET D                 
1 43186U 18014G   26178.29197378  .00005662  00000+0  29169-3 0  9994
2 43186  97.5361  83.0197 0007831 356.9933   3.1252 15.16763606460295
S-NET B                 
1 43187U 18014H   26178.30362343  .00005127  00000+0  26469-3 0  9999
2 43187  97.5364  83.0183 0008281 351.4081   8.7009 15.16733675460292
S-NET A                 
1 43188U 18014J   26178.29079630  .00005727  00000+0  29495-3 0  9990
2 43188  97.5374  83.2164 0008209 352.2012   7.9092 15.16772032460291
S-NET C                 
1 43189U 18014K   26178.24157693  .00004962  00000+0  25631-3 0  9990
2 43189  97.5389  83.2436 0009300 343.0033  17.0887 15.16725049458831
SALSAT                  
1 46495U 20068K   26177.95657953  .00008212  00000+0  28601-3 0  9998
2 46495  97.8848 181.6168 0007823 266.2984  93.7361 15.29932421316852
OOV-CUBE (TUBSAT-30)    
1 60240U 24128F   26178.30236938  .00001776  00000+0  14517-3 0  9998
2 60240  61.9924 190.3003 0043380 136.0271 224.4286 15.02808276107633
LPNTSAT-001 (IOD-1)     
1 68408U 26065A   26178.15851600  .00002970  00000+0  14650-3 0  9991
2 68408  97.4012  58.4571 0015593 335.5283  24.5209 15.18586417 13779
